[{"OBJECT_NAME":"ONEWEB-0582","OBJECT_ID":"2022-166H","EPOCH":"2026-04-13T17:07:31.889856","MEAN_MOTION":13.21825515,"ECCENTRICITY":0.0001868,"INCLINATION":87.9194,"RA_OF_ASC_NODE":256.8166,"ARG_OF_PERICENTER":113.4826,"MEAN_ANOMALY":246.6505,"EPHEMERIS_TYPE":0,"CLASSIFICATION_TYPE":"U","NORAD_CAT_ID":54649,"ELEMENT_SET_NO":999,"REV_AT_EPOCH":16300,"BSTAR":-3.8791e-06,"MEAN_MOTION_DOT":1.1e-07,"MEAN_MOTION_DDOT":0.0},{"OBJECT_NAME":"ONEWEB-0583","OBJECT_ID":"2022-166J","EPOCH":"2026-04-13T15:35:30.982560","MEAN_MOTION":13.21826376,"ECCENTRICITY":0.0001848,"INCLINATION":87.9192,"RA_OF_ASC_NODE":256.8526,"ARG_OF_PERICENTER":103.1668,"MEAN_ANOMALY":256.9672,"EPHEMERIS_TYPE":0,"CLASSIFICATION_TYPE":"U","NORAD_CAT_ID":54650,"ELEMENT_SET_NO":999,"REV_AT_EPOCH":16300,"BSTAR":9.760400000000001e-05,"MEAN_MOTION_DOT":5.3e-07,"MEAN_MOTION_DDOT":0.0},{"OBJECT_NAME":"ONEWEB-0584","OBJECT_ID":"2022-166K","EPOCH":"2026-04-13T19:42:35.657856","MEAN_MOTION":13.21828827,"ECCENTRICITY":0.0001721,"INCLINATION":87.9191,"RA_OF_ASC_NODE":256.8052,"ARG_OF_PERICENTER":104.6572,"MEAN_ANOMALY":255.4753,"EPHEMERIS_TYPE":0,"CLASSIFICATION_TYPE":"U","NORAD_CAT_ID":54651,"ELEMENT_SET_NO":999,"REV_AT_EPOCH":16301,"BSTAR":7.935900000000001e-05,"MEAN_MOTION_DOT":4.6e-07,"MEAN_MOTION_DDOT":0.0},{"OBJECT_NAME":"ONEWEB-0585","OBJECT_ID":"2022-166L","EPOCH":"2026-04-13T20:16:27.270912","MEAN_MOTION":13.21824769,"ECCENTRICITY":0.0001863,"INCLINATION":87.9193,"RA_OF_ASC_NODE":256.7851,"ARG_OF_PERICENTER":93.6492,"MEAN_ANOMALY":266.4855,"EPHEMERIS_TYPE":0,"CLASSIFICATION_TYPE":"U","NORAD_CAT_ID":54652,"ELEMENT_SET_NO":999,"REV_AT_EPOCH":16302,"BSTAR":0.00012628000000000002,"MEAN_MOTION_DOT":6.5e-07,"MEAN_MOTION_DDOT":0.0},{"OBJECT_NAME":"ONEWEB-0586","OBJECT_ID":"2022-166M","EPOCH":"2026-04-13T16:57:49.405248","MEAN_MOTION":13.21826565,"ECCENTRICITY":0.0001871,"INCLINATION":87.9196,"RA_OF_ASC_NODE":256.8388,"ARG_OF_PERICENTER":104.4543,"MEAN_ANOMALY":255.6799,"EPHEMERIS_TYPE":0,"CLASSIFICATION_TYPE":"U","NORAD_CAT_ID":54653,"ELEMENT_SET_NO":999,"REV_AT_EPOCH":16300,"BSTAR":4.9755e-05,"MEAN_MOTION_DOT":3.4e-07,"MEAN_MOTION_DDOT":0.0},{"OBJECT_NAME":"ONEWEB-0587","OBJECT_ID":"2022-166N","EPOCH":"2026-04-13T17:12:23.908896","MEAN_MOTION":13.21824459,"ECCENTRICITY":0.000186,"INCLINATION":87.9206,"RA_OF_ASC_NODE":256.8041,"ARG_OF_PERICENTER":86.6567,"MEAN_ANOMALY":273.4779,"EPHEMERIS_TYPE":0,"CLASSIFICATION_TYPE":"U","NORAD_CAT_ID":54654,"ELEMENT_SET_NO":999,"REV_AT_EPOCH":16316,"BSTAR":0.0007666500000000001,"MEAN_MOTION_DOT":3.3e-06,"MEAN_MOTION_DDOT":0.0},{"OBJECT_NAME":"ONEWEB-0589","OBJECT_ID":"2022-166P","EPOCH":"2026-04-13T20:30:59.211072","MEAN_MOTION":13.21827379,"ECCENTRICITY":0.0001842,"INCLINATION":87.9193,"RA_OF_ASC_NODE":256.7971,"ARG_OF_PERICENTER":126.7683,"MEAN_ANOMALY":233.362,"EPHEMERIS_TYPE":0,"CLASSIFICATION_TYPE":"U","NORAD_CAT_ID":54655,"ELEMENT_SET_NO":999,"REV_AT_EPOCH":16304,"BSTAR":8.415700000000001e-05,"MEAN_MOTION_DOT":4.8e-07,"MEAN_MOTION_DDOT":0.0},{"OBJECT_NAME":"ONEWEB-0590","OBJECT_ID":"2022-166Q","EPOCH":"2026-04-13T15:40:09.489504","MEAN_MOTION":13.21826026,"ECCENTRICITY":0.0001338,"INCLINATION":87.9201,"RA_OF_ASC_NODE":256.8211,"ARG_OF_PERICENTER":97.713,"MEAN_ANOMALY":262.4156,"EPHEMERIS_TYPE":0,"CLASSIFICATION_TYPE":"U","NORAD_CAT_ID":54656,"ELEMENT_SET_NO":999,"REV_AT_EPOCH":16300,"BSTAR":-5.0998e-05,"MEAN_MOTION_DOT":-8e-08,"MEAN_MOTION_DDOT":0.0},{"OBJECT_NAME":"ONEWEB-0591","OBJECT_ID":"2022-166R","EPOCH":"2026-04-13T19:35:19.410432","MEAN_MOTION":13.21826338,"ECCENTRICITY":0.000175,"INCLINATION":87.9194,"RA_OF_ASC_NODE":256.8082,"ARG_OF_PERICENTER":98.8462,"MEAN_ANOMALY":261.287,"EPHEMERIS_TYPE":0,"CLASSIFICATION_TYPE":"U","NORAD_CAT_ID":54657,"ELEMENT_SET_NO":999,"REV_AT_EPOCH":16305,"BSTAR":0.00025452000000000005,"MEAN_MOTION_DOT":1.18e-06,"MEAN_MOTION_DDOT":0.0},{"OBJECT_NAME":"ONEWEB-0592","OBJECT_ID":"2022-166S","EPOCH":"2026-04-13T19:40:09.773184","MEAN_MOTION":13.21826821,"ECCENTRICITY":0.0001776,"INCLINATION":87.9197,"RA_OF_ASC_NODE":256.7802,"ARG_OF_PERICENTER":98.373,"MEAN_ANOMALY":261.7605,"EPHEMERIS_TYPE":0,"CLASSIFICATION_TYPE":"U","NORAD_CAT_ID":54658,"ELEMENT_SET_NO":999,"REV_AT_EPOCH":16293,"BSTAR":-1.8822e-05,"MEAN_MOTION_DOT":5e-08,"MEAN_MOTION_DDOT":0.0},{"OBJECT_NAME":"ONEWEB-0593","OBJECT_ID":"2022-166T","EPOCH":"2026-04-13T16:33:36.033696","MEAN_MOTION":13.218238,"ECCENTRICITY":0.0001931,"INCLINATION":87.9198,"RA_OF_ASC_NODE":256.8225,"ARG_OF_PERICENTER":102.181,"MEAN_ANOMALY":257.954,"EPHEMERIS_TYPE":0,"CLASSIFICATION_TYPE":"U","NORAD_CAT_ID":54659,"ELEMENT_SET_NO":999,"REV_AT_EPOCH":16302,"BSTAR":0.00015061,"MEAN_MOTION_DOT":7.5e-07,"MEAN_MOTION_DDOT":0.0},{"OBJECT_NAME":"ONEWEB-0594","OBJECT_ID":"2022-166U","EPOCH":"2026-04-13T17:02:40.148160","MEAN_MOTION":13.21826279,"ECCENTRICITY":0.0001843,"INCLINATION":87.9192,"RA_OF_ASC_NODE":256.8359,"ARG_OF_PERICENTER":95.5569,"MEAN_ANOMALY":264.5775,"EPHEMERIS_TYPE":0,"CLASSIFICATION_TYPE":"U","NORAD_CAT_ID":54660,"ELEMENT_SET_NO":999,"REV_AT_EPOCH":16304,"BSTAR":7.0646e-05,"MEAN_MOTION_DOT":4.2e-07,"MEAN_MOTION_DDOT":0.0},{"OBJECT_NAME":"ONEWEB-0595","OBJECT_ID":"2022-166V","EPOCH":"2026-04-13T16:28:45.519744","MEAN_MOTION":13.21823628,"ECCENTRICITY":0.0001797,"INCLINATION":87.9203,"RA_OF_ASC_NODE":256.8159,"ARG_OF_PERICENTER":92.3824,"MEAN_ANOMALY":267.7516,"EPHEMERIS_TYPE":0,"CLASSIFICATION_TYPE":"U","NORAD_CAT_ID":54661,"ELEMENT_SET_NO":999,"REV_AT_EPOCH":16301,"BSTAR":0.00025138,"MEAN_MOTION_DOT":1.17e-06,"MEAN_MOTION_DDOT":0.0},{"OBJECT_NAME":"ONEWEB-0596","OBJECT_ID":"2022-166W","EPOCH":"2026-04-13T15:52:28.326144","MEAN_MOTION":13.21826633,"ECCENTRICITY":0.0001802,"INCLINATION":87.9196,"RA_OF_ASC_NODE":256.8366,"ARG_OF_PERICENTER":95.5486,"MEAN_ANOMALY":264.5854,"EPHEMERIS_TYPE":0,"CLASSIFICATION_TYPE":"U","NORAD_CAT_ID":54662,"ELEMENT_SET_NO":999,"REV_AT_EPOCH":16301,"BSTAR":0.00019011,"MEAN_MOTION_DOT":9.2e-07,"MEAN_MOTION_DDOT":0.0},{"OBJECT_NAME":"ONEWEB-0597","OBJECT_ID":"2022-166X","EPOCH":"2026-04-13T17:14:49.673472","MEAN_MOTION":13.2182612,"ECCENTRICITY":0.0001853,"INCLINATION":87.9194,"RA_OF_ASC_NODE":256.8294,"ARG_OF_PERICENTER":102.9828,"MEAN_ANOMALY":257.1513,"EPHEMERIS_TYPE":0,"CLASSIFICATION_TYPE":"U","NORAD_CAT_ID":54663,"ELEMENT_SET_NO":999,"REV_AT_EPOCH":16302,"BSTAR":-5.8157000000000006e-05,"MEAN_MOTION_DOT":-1.1e-07,"MEAN_MOTION_DDOT":0.0},{"OBJECT_NAME":"ONEWEB-0600","OBJECT_ID":"2022-166Y","EPOCH":"2026-04-13T20:26:08.678112","MEAN_MOTION":13.21826058,"ECCENTRICITY":0.0002023,"INCLINATION":87.9197,"RA_OF_ASC_NODE":256.794,"ARG_OF_PERICENTER":100.1513,"MEAN_ANOMALY":259.985,"EPHEMERIS_TYPE":0,"CLASSIFICATION_TYPE":"U","NORAD_CAT_ID":54664,"ELEMENT_SET_NO":999,"REV_AT_EPOCH":16301,"BSTAR":-0.00093796,"MEAN_MOTION_DOT":-3.74e-06,"MEAN_MOTION_DDOT":0.0}]