{"generatedAt":"2026-04-14T07:56:45.725768Z","satellites":[{"name":"ONEWEB-0582","tle1":"1 54649U 22166H   26103.71356354  .00000011  00000+0 -38791-5 0  9996","tle2":"2 54649  87.9194 256.8166 0001868 113.4826 246.6505 13.21825515163001"},{"name":"ONEWEB-0583","tle1":"1 54650U 22166J   26103.64966415  .00000053  00000+0  97604-4 0  9997","tle2":"2 54650  87.9192 256.8526 0001848 103.1668 256.9672 13.21826376163004"},{"name":"ONEWEB-0584","tle1":"1 54651U 22166K   26103.82124604  .00000046  00000+0  79359-4 0  9993","tle2":"2 54651  87.9191 256.8052 0001721 104.6572 255.4753 13.21828827163016"},{"name":"ONEWEB-0585","tle1":"1 54652U 22166L   26103.84476008  .00000065  00000+0  12628-3 0  9990","tle2":"2 54652  87.9193 256.7851 0001863  93.6492 266.4855 13.21824769163027"},{"name":"ONEWEB-0586","tle1":"1 54653U 22166M   26103.70682182  .00000034  00000+0  49755-4 0  9996","tle2":"2 54653  87.9196 256.8388 0001871 104.4543 255.6799 13.21826565163005"},{"name":"ONEWEB-0587","tle1":"1 54654U 22166N   26103.71694339  .00000330  00000+0  76665-3 0  9993","tle2":"2 54654  87.9206 256.8041 0001860  86.6567 273.4779 13.21824459163162"},{"name":"ONEWEB-0589","tle1":"1 54655U 22166P   26103.85485198  .00000048  00000+0  84157-4 0  9992","tle2":"2 54655  87.9193 256.7971 0001842 126.7683 233.3620 13.21827379163045"},{"name":"ONEWEB-0590","tle1":"1 54656U 22166Q   26103.65288761 -.00000008  00000+0 -50998-4 0  9992","tle2":"2 54656  87.9201 256.8211 0001338  97.7130 262.4156 13.21826026163009"},{"name":"ONEWEB-0591","tle1":"1 54657U 22166R   26103.81619688  .00000118  00000+0  25452-3 0  9993","tle2":"2 54657  87.9194 256.8082 0001750  98.8462 261.2870 13.21826338163056"},{"name":"ONEWEB-0592","tle1":"1 54658U 22166S   26103.81955756  .00000005  00000+0 -18822-4 0  9993","tle2":"2 54658  87.9197 256.7802 0001776  98.3730 261.7605 13.21826821162934"},{"name":"ONEWEB-0593","tle1":"1 54659U 22166T   26103.69000039  .00000075  00000+0  15061-3 0  9992","tle2":"2 54659  87.9198 256.8225 0001931 102.1810 257.9540 13.21823800163022"},{"name":"ONEWEB-0594","tle1":"1 54660U 22166U   26103.71018690  .00000042  00000+0  70646-4 0  9994","tle2":"2 54660  87.9192 256.8359 0001843  95.5569 264.5775 13.21826279163043"},{"name":"ONEWEB-0595","tle1":"1 54661U 22166V   26103.68663796  .00000117  00000+0  25138-3 0  9992","tle2":"2 54661  87.9203 256.8159 0001797  92.3824 267.7516 13.21823628163012"},{"name":"ONEWEB-0596","tle1":"1 54662U 22166W   26103.66143896  .00000092  00000+0  19011-3 0  9990","tle2":"2 54662  87.9196 256.8366 0001802  95.5486 264.5854 13.21826633163019"},{"name":"ONEWEB-0597","tle1":"1 54663U 22166X   26103.71863048 -.00000011  00000+0 -58157-4 0  9993","tle2":"2 54663  87.9194 256.8294 0001853 102.9828 257.1513 13.21826120163029"},{"name":"ONEWEB-0600","tle1":"1 54664U 22166Y   26103.85148933 -.00000374  00000+0 -93796-3 0  9997","tle2":"2 54664  87.9197 256.7940 0002023 100.1513 259.9850 13.21826058163014"}]}